QIANFAN-97              
1 66039U 25233G   25308.23286859  .00000668  00000+0  27279-3 0  9999
2 66039  88.9950  66.4632 0015544 156.2306 203.9609 14.26160667  2554
QIANFAN-98              
1 66040U 25233H   25308.23262918  .00000670  00000+0  27372-3 0  9998
2 66040  88.9950  66.4633 0015180 154.9639 205.2294 14.26182156  2559
QIANFAN-99              
1 66041U 25233J   25308.23250539  .00000670  00000+0  27330-3 0  9999
2 66041  88.9950  66.4631 0015320 154.0833 206.1131 14.26197613  2555
QIANFAN-100             
1 66042U 25233K   25308.23243822  .00000661  00000+0  26947-3 0  9990
2 66042  88.9950  66.4633 0015771 155.7721 204.4217 14.26213195  2552
QIANFAN-101             
1 66043U 25233L   25308.23019371  .00000443  00000+0  17734-3 0  9993
2 66043  88.9950  66.4628 0015706 154.0262 206.1724 14.26634382  2554
QIANFAN-102             
1 66044U 25233M   25308.23233472  .00000684  00000+0  27929-3 0  9998
2 66044  88.9950  66.4631 0016138 155.8772 204.3181 14.26217377  2552
QIANFAN-103             
1 66045U 25233N   25308.23205408  .00000687  00000+0  28015-3 0  9997
2 66045  88.9950  66.4633 0015529 154.6383 205.5576 14.26246598  2551
QIANFAN-104             
1 66046U 25233P   25308.23184726  .00000695  00000+0  28359-3 0  9997
2 66046  88.9950  66.4632 0015506 156.9098 203.2796 14.26267369  2552
